{
    "links": {
        "self": "http://www.neowsapp.com/rest/v1/neo/3712032?api_key=iIulBulltgU6a56xZRHN4H3l9WmuAYTsLGpBGhQ2"
    },
    "id": "3712032",
    "neo_reference_id": "3712032",
    "name": "(2015 DA156)",
    "designation": "2015 DA156",
    "nasa_jpl_url": "http://ssd.jpl.nasa.gov/sbdb.cgi?sstr=3712032",
    "absolute_magnitude_h": 22.2,
    "estimated_diameter": {
        "kilometers": {
            "estimated_diameter_min": 0.096506147,
            "estimated_diameter_max": 0.2157943048
        },
        "meters": {
            "estimated_diameter_min": 96.5061469579,
            "estimated_diameter_max": 215.7943048444
        },
        "miles": {
            "estimated_diameter_min": 0.059966121,
            "estimated_diameter_max": 0.134088323
        },
        "feet": {
            "estimated_diameter_min": 316.6212271853,
            "estimated_diameter_max": 707.9865871058
        }
    },
    "is_potentially_hazardous_asteroid": false,
    "close_approach_data": [
        {
            "close_approach_date": "2015-02-05",
            "close_approach_date_full": "2015-Feb-05 09:39",
            "epoch_date_close_approach": 1423129140000,
            "relative_velocity": {
                "kilometers_per_second": "23.1215210826",
                "kilometers_per_hour": "83237.4758972239",
                "miles_per_hour": "51720.5305095834"
            },
            "miss_distance": {
                "astronomical": "0.1872722068",
                "lunar": "72.8488884452",
                "kilometers": "28015523.247479516",
                "miles": "17408038.9244926808"
            },
            "orbiting_body": "Earth"
        }
    ],
    "orbital_data": {
        "orbit_id": "10",
        "orbit_determination_date": "2019-12-04 07:14:03",
        "first_observation_date": "2015-02-19",
        "last_observation_date": "2015-02-27",
        "data_arc_in_days": 8,
        "observations_used": 35,
        "orbit_uncertainty": "8",
        "minimum_orbit_intersection": ".0749995",
        "jupiter_tisserand_invariant": "3.812",
        "epoch_osculation": "2457076.5",
        "eccentricity": ".6082679980772775",
        "semi_major_axis": "1.697712053544148",
        "inclination": "34.49516813752636",
        "ascending_node_longitude": "148.9926859515632",
        "orbital_period": "807.9685848614695",
        "perihelion_distance": ".6650481414231854",
        "perihelion_argument": "253.7651796442939",
        "aphelion_distance": "2.73037596566511",
        "perihelion_time": "2456998.741715828201",
        "mean_anomaly": "34.6461271221915",
        "mean_motion": ".4455618779555939",
        "equinox": "J2000",
        "orbit_class": {
            "orbit_class_type": "APO",
            "orbit_class_description": "Near-Earth asteroid orbits which cross the Earth’s orbit similar to that of 1862 Apollo",
            "orbit_class_range": "a (semi-major axis) > 1.0 AU; q (perihelion) < 1.017 AU"
        }
    },
    "is_sentry_object": false
}